[
    {
        "Altitude(m)": 607886.736058385,
        "Argument of Periapsis(deg)": 0.0,
        "Eccentricity": 0.0,
        "Inclination(deg)": 60.0,
        "Latitude(deg)": 40.998564486334786,
        "Longitude(deg)": 129.97299642179786,
        "Mean Anomaly(deg)": 49.09090000000002,
        "RAAN(deg)": 200.0,
        "Satellite Name": "Test1 883",
        "Satellite Number": 883,
        "Semi-Major Axis(m)": 6980739.136638005,
        "Time(s)": 0
    },
    {
        "Altitude(m)": 607987.6501318951,
        "Argument of Periapsis(deg)": 0.00010418945913296404,
        "Eccentricity": 0.0,
        "Inclination(deg)": 60.0,
        "Latitude(deg)": 41.46365437387928,
        "Longitude(deg)": 130.47722550446596,
        "Mean Anomaly(deg)": 49.71100614546182,
        "RAAN(deg)": 199.99957995086027,
        "Satellite Name": "Test1 883",
        "Satellite Number": 883,
        "Semi-Major Axis(m)": 6980739.136638005,
        "Time(s)": 10
    },
    {
        "Altitude(m)": 608088.6138070452,
        "Argument of Periapsis(deg)": 0.0002083789182659281,
        "Eccentricity": 0.0,
        "Inclination(deg)": 60.0,
        "Latitude(deg)": 41.92608007559244,
        "Longitude(deg)": 130.98927764213215,
        "Mean Anomaly(deg)": 50.33111229092365,
        "RAAN(deg)": 199.9991599017205,
        "Satellite Name": "Test1 883",
        "Satellite Number": 883,
        "Semi-Major Axis(m)": 6980739.136638005,
        "Time(s)": 20
    },
    {
        "Altitude(m)": 608189.5638625639,
        "Argument of Periapsis(deg)": 0.00031256837739889213,
        "Eccentricity": 0.0,
        "Inclination(deg)": 60.0,
        "Latitude(deg)": 42.38576084140237,
        "Longitude(deg)": 131.50934887702647,
        "Mean Anomaly(deg)": 50.95121843638551,
        "RAAN(deg)": 199.99873985258077,
        "Satellite Name": "Test1 883",
        "Satellite Number": 883,
        "Semi-Major Axis(m)": 6980739.136638005,
        "Time(s)": 30
    },
    {
        "Altitude(m)": 608290.4373039203,
        "Argument of Periapsis(deg)": 0.0004167578365318562,
        "Eccentricity": 0.0,
        "Inclination(deg)": 60.0,
        "Latitude(deg)": 42.842613374175976,
        "Longitude(deg)": 132.03763911811686,
        "Mean Anomaly(deg)": 51.571324581847335,
        "RAAN(deg)": 199.99831980344103,
        "Satellite Name": "Test1 883",
        "Satellite Number": 883,
        "Semi-Major Axis(m)": 6980739.136638005,
        "Time(s)": 40
    },
    {
        "Altitude(m)": 608391.1713945586,
        "Argument of Periapsis(deg)": 0.0005209472956648203,
        "Eccentricity": 0.0,
        "Inclination(deg)": 60.0,
        "Latitude(deg)": 43.29655175033282,
        "Longitude(deg)": 132.5743510460857,
        "Mean Anomaly(deg)": 52.19143072730914,
        "RAAN(deg)": 199.9978997543013,
        "Satellite Name": "Test1 883",
        "Satellite Number": 883,
        "Semi-Major Axis(m)": 6980739.136638005,
        "Time(s)": 50
    },
    {
        "Altitude(m)": 608491.7036869974,
        "Argument of Periapsis(deg)": 0.0006251367547977843,
        "Eccentricity": 0.0,
        "Inclination(deg)": 60.0,
        "Latitude(deg)": 43.74748733974828,
        "Longitude(deg)": 133.1196905114154,
        "Mean Anomaly(deg)": 52.811536872770965,
        "RAAN(deg)": 199.99747970516154,
        "Satellite Name": "Test1 883",
        "Satellite Number": 883,
        "Semi-Major Axis(m)": 6980739.136638005,
        "Time(s)": 60
    },
    {
        "Altitude(m)": 608591.9720536959,
        "Argument of Periapsis(deg)": 0.0007293262139307483,
        "Eccentricity": 0.0,
        "Inclination(deg)": 60.0,
        "Latitude(deg)": 44.195328725179564,
        "Longitude(deg)": 133.67386691081728,
        "Mean Anomaly(deg)": 53.43164301823282,
        "RAAN(deg)": 199.9970596560218,
        "Satellite Name": "Test1 883",
        "Satellite Number": 883,
        "Semi-Major Axis(m)": 6980739.136638005,
        "Time(s)": 70
    },
    {
        "Altitude(m)": 608691.9147177613,
        "Argument of Periapsis(deg)": 0.0008335156730637124,
        "Eccentricity": 0.0,
        "Inclination(deg)": 60.0,
        "Latitude(deg)": 44.63998162148053,
        "Longitude(deg)": 134.23709202711865,
        "Mean Anomaly(deg)": 54.051749163694645,
        "RAAN(deg)": 199.99663960688207,
        "Satellite Name": "Test1 883",
        "Satellite Number": 883,
        "Semi-Major Axis(m)": 6980739.136638005,
        "Time(s)": 80
    },
    {
        "Altitude(m)": 608791.4702834006,
        "Argument of Periapsis(deg)": 0.0009377051321966765,
        "Eccentricity": 0.0,
        "Inclination(deg)": 60.0,
        "Latitude(deg)": 45.08134879490483,
        "Longitude(deg)": 134.80958035622197,
        "Mean Anomaly(deg)": 54.6718553091565,
        "RAAN(deg)": 199.99621955774234,
        "Satellite Name": "Test1 883",
        "Satellite Number": 883,
        "Semi-Major Axis(m)": 6980739.136638005,
        "Time(s)": 90
    },
    {
        "Altitude(m)": 608890.577766171,
        "Argument of Periapsis(deg)": 0.0010418945913296407,
        "Eccentricity": 0.0,
        "Inclination(deg)": 60.0,
        "Latitude(deg)": 45.51932998283971,
        "Longitude(deg)": 135.39154940600386,
        "Mean Anomaly(deg)": 55.291961454618324,
        "RAAN(deg)": 199.99579950860257,
        "Satellite Name": "Test1 883",
        "Satellite Number": 883,
        "Semi-Major Axis(m)": 6980739.136638005,
        "Time(s)": 100
    },
    {
        "Altitude(m)": 608989.17662296,
        "Argument of Periapsis(deg)": 0.0011460840504626045,
        "Eccentricity": 0.0,
        "Inclination(deg)": 60.0,
        "Latitude(deg)": 45.953821814358925,
        "Longitude(deg)": 135.98321845189687,
        "Mean Anomaly(deg)": 55.91206760008013,
        "RAAN(deg)": 199.99537945946284,
        "Satellite Name": "Test1 883",
        "Satellite Number": 883,
        "Semi-Major Axis(m)": 6980739.136638005,
        "Time(s)": 110
    },
    {
        "Altitude(m)": 609087.2067817328,
        "Argument of Periapsis(deg)": 0.0012502735095955685,
        "Eccentricity": 0.0,
        "Inclination(deg)": 60.0,
        "Latitude(deg)": 46.384717732023574,
        "Longitude(deg)": 136.58480877240677,
        "Mean Anomaly(deg)": 56.532173745541954,
        "RAAN(deg)": 199.9949594103231,
        "Satellite Name": "Test1 883",
        "Satellite Number": 883,
        "Semi-Major Axis(m)": 6980739.136638005,
        "Time(s)": 120
    },
    {
        "Altitude(m)": 609184.6086709788,
        "Argument of Periapsis(deg)": 0.0013544629687285324,
        "Eccentricity": 0.0,
        "Inclination(deg)": 60.0,
        "Latitude(deg)": 46.811907915415475,
        "Longitude(deg)": 137.19654384907818,
        "Mean Anomaly(deg)": 57.15227989100381,
        "RAAN(deg)": 199.9945393611833,
        "Satellite Name": "Test1 883",
        "Satellite Number": 883,
        "Semi-Major Axis(m)": 6980739.136638005,
        "Time(s)": 130
    },
    {
        "Altitude(m)": 609281.3232488992,
        "Argument of Periapsis(deg)": 0.0014586524278614966,
        "Eccentricity": 0.0,
        "Inclination(deg)": 60.0,
        "Latitude(deg)": 47.23527920694384,
        "Longitude(deg)": 137.81864801531793,
        "Mean Anomaly(deg)": 57.77238603646563,
        "RAAN(deg)": 199.9941193120436,
        "Satellite Name": "Test1 883",
        "Satellite Number": 883,
        "Semi-Major Axis(m)": 6980739.136638005,
        "Time(s)": 140
    },
    {
        "Altitude(m)": 609377.2920322797,
        "Argument of Periapsis(deg)": 0.0015628418869944607,
        "Eccentricity": 0.0,
        "Inclination(deg)": 60.0,
        "Latitude(deg)": 47.65471504051647,
        "Longitude(deg)": 138.45134657701826,
        "Mean Anomaly(deg)": 58.39249218192744,
        "RAAN(deg)": 199.99369926290387,
        "Satellite Name": "Test1 883",
        "Satellite Number": 883,
        "Semi-Major Axis(m)": 6980739.136638005,
        "Time(s)": 150
    },
    {
        "Altitude(m)": 609472.4571250593,
        "Argument of Periapsis(deg)": 0.0016670313461274247,
        "Eccentricity": 0.0,
        "Inclination(deg)": 60.0,
        "Latitude(deg)": 48.07009537373593,
        "Longitude(deg)": 139.09486588921808,
        "Mean Anomaly(deg)": 59.01259832738926,
        "RAAN(deg)": 199.9932792137641,
        "Satellite Name": "Test1 883",
        "Satellite Number": 883,
        "Semi-Major Axis(m)": 6980739.136638005,
        "Time(s)": 160
    },
    {
        "Altitude(m)": 609566.7612465784,
        "Argument of Periapsis(deg)": 0.0017712208052603888,
        "Eccentricity": 0.0,
        "Inclination(deg)": 60.0,
        "Latitude(deg)": 48.481296624345084,
        "Longitude(deg)": 139.7494318729817,
        "Mean Anomaly(deg)": 59.63270447285112,
        "RAAN(deg)": 199.99285916462435,
        "Satellite Name": "Test1 883",
        "Satellite Number": 883,
        "Semi-Major Axis(m)": 6980739.136638005,
        "Time(s)": 170
    },
    {
        "Altitude(m)": 609660.147759483,
        "Argument of Periapsis(deg)": 0.001875410264393353,
        "Eccentricity": 0.0,
        "Inclination(deg)": 60.0,
        "Latitude(deg)": 48.888191611710404,
        "Longitude(deg)": 140.4152699952653,
        "Mean Anomaly(deg)": 60.25281061831294,
        "RAAN(deg)": 199.99243911548464,
        "Satellite Name": "Test1 883",
        "Satellite Number": 883,
        "Semi-Major Axis(m)": 6980739.136638005,
        "Time(s)": 180
    },
    {
        "Altitude(m)": 609752.5606972827,
        "Argument of Periapsis(deg)": 0.0019795997235263173,
        "Eccentricity": 0.0,
        "Inclination(deg)": 60.0,
        "Latitude(deg)": 49.29064950420889,
        "Longitude(deg)": 141.09260519590947,
        "Mean Anomaly(deg)": 60.872916763774796,
        "RAAN(deg)": 199.9920190663449,
        "Satellite Name": "Test1 883",
        "Satellite Number": 883,
        "Semi-Major Axis(m)": 6980739.136638005,
        "Time(s)": 190
    }
]